[
    {
        "Altitude(m)": 703940.1232747757,
        "Argument of Periapsis(deg)": 0.004556048474650827,
        "Eccentricity": 0.0,
        "Inclination(deg)": 45.0,
        "Latitude(deg)": -3.3432029155028014,
        "Longitude(deg)": -101.96032375421156,
        "Mean Anomaly(deg)": 184.61328665899234,
        "RAAN(deg)": 174.99569922341672,
        "Satellite Name": "Constellation 1 781",
        "Satellite Number": 781,
        "Semi-Major Axis(m)": 7083131.272910544,
        "Time(s)": 76
    },
    {
        "Altitude(m)": 703947.3106960363,
        "Argument of Periapsis(deg)": 0.004615996480896233,
        "Eccentricity": 0.0,
        "Inclination(deg)": 45.0,
        "Latitude(deg)": -3.3863374334450422,
        "Longitude(deg)": -101.92143361530205,
        "Mean Anomaly(deg)": 184.6739877992422,
        "RAAN(deg)": 174.99564263425117,
        "Satellite Name": "Constellation 1 781",
        "Satellite Number": 781,
        "Semi-Major Axis(m)": 7083131.272910544,
        "Time(s)": 77
    },
    {
        "Altitude(m)": 703954.5179686091,
        "Argument of Periapsis(deg)": 0.004675944487141638,
        "Eccentricity": 0.0,
        "Inclination(deg)": 45.0,
        "Latitude(deg)": -3.4294699209976067,
        "Longitude(deg)": -101.88253974992485,
        "Mean Anomaly(deg)": 184.73468893949217,
        "RAAN(deg)": 174.9955860450856,
        "Satellite Name": "Constellation 1 781",
        "Satellite Number": 781,
        "Semi-Major Axis(m)": 7083131.272910544,
        "Time(s)": 78
    },
    {
        "Altitude(m)": 703961.7450787672,
        "Argument of Periapsis(deg)": 0.004735892493387044,
        "Eccentricity": 0.0,
        "Inclination(deg)": 45.0,
        "Latitude(deg)": -3.472600352966556,
        "Longitude(deg)": -101.84364210947668,
        "Mean Anomaly(deg)": 184.79539007974208,
        "RAAN(deg)": 174.99552945592,
        "Satellite Name": "Constellation 1 781",
        "Satellite Number": 781,
        "Semi-Major Axis(m)": 7083131.272910544,
        "Time(s)": 79
    },
    {
        "Altitude(m)": 703968.9920126927,
        "Argument of Periapsis(deg)": 0.004795840499632449,
        "Eccentricity": 0.0,
        "Inclination(deg)": 45.0,
        "Latitude(deg)": -3.515728704151119,
        "Longitude(deg)": -101.80474064534609,
        "Mean Anomaly(deg)": 184.85609121999192,
        "RAAN(deg)": 174.99547286675443,
        "Satellite Name": "Constellation 1 781",
        "Satellite Number": 781,
        "Semi-Major Axis(m)": 7083131.272910544,
        "Time(s)": 80
    },
    {
        "Altitude(m)": 703976.2587564706,
        "Argument of Periapsis(deg)": 0.004855788505877855,
        "Eccentricity": 0.0,
        "Inclination(deg)": 45.0,
        "Latitude(deg)": -3.5588549493435404,
        "Longitude(deg)": -101.76583530891331,
        "Mean Anomaly(deg)": 184.9167923602418,
        "RAAN(deg)": 174.99541627758887,
        "Satellite Name": "Constellation 1 781",
        "Satellite Number": 781,
        "Semi-Major Axis(m)": 7083131.272910544,
        "Time(s)": 81
    },
    {
        "Altitude(m)": 703983.5452960974,
        "Argument of Periapsis(deg)": 0.00491573651212326,
        "Eccentricity": 0.0,
        "Inclination(deg)": 45.0,
        "Latitude(deg)": -3.6019790633288284,
        "Longitude(deg)": -101.72692621964728,
        "Mean Anomaly(deg)": 184.97749350049173,
        "RAAN(deg)": 174.9953596884233,
        "Satellite Name": "Constellation 1 781",
        "Satellite Number": 781,
        "Semi-Major Axis(m)": 7083131.272910544,
        "Time(s)": 82
    },
    {
        "Altitude(m)": 703990.8516174846,
        "Argument of Periapsis(deg)": 0.004975684518368666,
        "Eccentricity": 0.0,
        "Inclination(deg)": 45.0,
        "Latitude(deg)": -3.6451010208850936,
        "Longitude(deg)": -101.68801299271736,
        "Mean Anomaly(deg)": -174.9618053592584,
        "RAAN(deg)": 174.99530309925774,
        "Satellite Name": "Constellation 1 781",
        "Satellite Number": 781,
        "Semi-Major Axis(m)": 7083131.272910544,
        "Time(s)": 83
    },
    {
        "Altitude(m)": 703998.1777064323,
        "Argument of Periapsis(deg)": 0.005035632524614072,
        "Eccentricity": 0.0,
        "Inclination(deg)": 45.0,
        "Latitude(deg)": -3.6882207967828675,
        "Longitude(deg)": -101.6490957475755,
        "Mean Anomaly(deg)": -174.90110421900843,
        "RAAN(deg)": 174.99524651009216,
        "Satellite Name": "Constellation 1 781",
        "Satellite Number": 781,
        "Semi-Major Axis(m)": 7083131.272910544,
        "Time(s)": 84
    },
    {
        "Altitude(m)": 704005.5235486825,
        "Argument of Periapsis(deg)": 0.0050955805308594785,
        "Eccentricity": 0.0,
        "Inclination(deg)": 45.0,
        "Latitude(deg)": -3.7313383657853545,
        "Longitude(deg)": -101.61017443556791,
        "Mean Anomaly(deg)": -174.8404030787586,
        "RAAN(deg)": 174.99518992092658,
        "Satellite Name": "Constellation 1 781",
        "Satellite Number": 781,
        "Semi-Major Axis(m)": 7083131.272910544,
        "Time(s)": 85
    },
    {
        "Altitude(m)": 704012.8891298447,
        "Argument of Periapsis(deg)": 0.005155528537104883,
        "Eccentricity": 0.0,
        "Inclination(deg)": 45.0,
        "Latitude(deg)": -3.77445370264844,
        "Longitude(deg)": -101.57124900803204,
        "Mean Anomaly(deg)": -174.77970193850865,
        "RAAN(deg)": 174.99513333176102,
        "Satellite Name": "Constellation 1 781",
        "Satellite Number": 781,
        "Semi-Major Axis(m)": 7083131.272910544,
        "Time(s)": 86
    },
    {
        "Altitude(m)": 704020.2744354764,
        "Argument of Periapsis(deg)": 0.0052154765433502885,
        "Eccentricity": 0.0,
        "Inclination(deg)": 45.0,
        "Latitude(deg)": -3.8175667821203367,
        "Longitude(deg)": -101.53231941629639,
        "Mean Anomaly(deg)": -174.71900079825878,
        "RAAN(deg)": 174.99507674259544,
        "Satellite Name": "Constellation 1 781",
        "Satellite Number": 781,
        "Semi-Major Axis(m)": 7083131.272910544,
        "Time(s)": 87
    },
    {
        "Altitude(m)": 704027.6794510159,
        "Argument of Periapsis(deg)": 0.005275424549595694,
        "Eccentricity": 0.0,
        "Inclination(deg)": 45.0,
        "Latitude(deg)": -3.8606775789415613,
        "Longitude(deg)": -101.4933856116806,
        "Mean Anomaly(deg)": -174.65829965800887,
        "RAAN(deg)": 174.9950201534299,
        "Satellite Name": "Constellation 1 781",
        "Satellite Number": 781,
        "Semi-Major Axis(m)": 7083131.272910544,
        "Time(s)": 88
    },
    {
        "Altitude(m)": 704035.1041618264,
        "Argument of Periapsis(deg)": 0.0053353725558411,
        "Eccentricity": 0.0,
        "Inclination(deg)": 45.0,
        "Latitude(deg)": -3.903786067844951,
        "Longitude(deg)": -101.45444771359216,
        "Mean Anomaly(deg)": -174.597598517759,
        "RAAN(deg)": 174.99496356426434,
        "Satellite Name": "Constellation 1 781",
        "Satellite Number": 781,
        "Semi-Major Axis(m)": 7083131.272910544,
        "Time(s)": 89
    },
    {
        "Altitude(m)": 704042.5485531725,
        "Argument of Periapsis(deg)": 0.005395320562086505,
        "Eccentricity": 0.0,
        "Inclination(deg)": 45.0,
        "Latitude(deg)": -3.9468922235556194,
        "Longitude(deg)": -101.41550533713827,
        "Mean Anomaly(deg)": -174.5368973775091,
        "RAAN(deg)": 174.99490697509873,
        "Satellite Name": "Constellation 1 781",
        "Satellite Number": 781,
        "Semi-Major Axis(m)": 7083131.272910544,
        "Time(s)": 90
    },
    {
        "Altitude(m)": 704050.012610227,
        "Argument of Periapsis(deg)": 0.00545526856833191,
        "Eccentricity": 0.0,
        "Inclination(deg)": 45.0,
        "Latitude(deg)": -3.9899960207906195,
        "Longitude(deg)": -101.37655860170788,
        "Mean Anomaly(deg)": -174.4761962372592,
        "RAAN(deg)": 174.99485038593318,
        "Satellite Name": "Constellation 1 781",
        "Satellite Number": 781,
        "Semi-Major Axis(m)": 7083131.272910544,
        "Time(s)": 91
    },
    {
        "Altitude(m)": 704057.4963180765,
        "Argument of Periapsis(deg)": 0.005515216574577317,
        "Eccentricity": 0.0,
        "Inclination(deg)": 45.0,
        "Latitude(deg)": -4.033097434259004,
        "Longitude(deg)": -101.3376074585836,
        "Mean Anomaly(deg)": -174.41549509700928,
        "RAAN(deg)": 174.9947937967676,
        "Satellite Name": "Constellation 1 781",
        "Satellite Number": 781,
        "Semi-Major Axis(m)": 7083131.272910544,
        "Time(s)": 92
    },
    {
        "Altitude(m)": 704064.9996617135,
        "Argument of Periapsis(deg)": 0.005575164580822722,
        "Eccentricity": 0.0,
        "Inclination(deg)": 45.0,
        "Latitude(deg)": -4.076196438661665,
        "Longitude(deg)": -101.29865185903859,
        "Mean Anomaly(deg)": -174.3547939567594,
        "RAAN(deg)": 174.99473720760204,
        "Satellite Name": "Constellation 1 781",
        "Satellite Number": 781,
        "Semi-Major Axis(m)": 7083131.272910544,
        "Time(s)": 93
    },
    {
        "Altitude(m)": 704072.522626042,
        "Argument of Periapsis(deg)": 0.005635112587068129,
        "Eccentricity": 0.0,
        "Inclination(deg)": 45.0,
        "Latitude(deg)": -4.119293008691392,
        "Longitude(deg)": -101.25969175433615,
        "Mean Anomaly(deg)": -174.29409281650948,
        "RAAN(deg)": 174.9946806184365,
        "Satellite Name": "Constellation 1 781",
        "Satellite Number": 781,
        "Semi-Major Axis(m)": 7083131.272910544,
        "Time(s)": 94
    }
]